[{"OBJECT_NAME":"STARLINK-32012","OBJECT_ID":"2024-111M","EPOCH":"2026-03-09T06:50:33.615456","MEAN_MOTION":15.30185615,"ECCENTRICITY":0.00012702,"INCLINATION":53.1606,"RA_OF_ASC_NODE":77.3493,"ARG_OF_PERICENTER":91.1019,"MEAN_ANOMALY":269.0127,"EPHEMERIS_TYPE":0,"CLASSIFICATION_TYPE":"U","NORAD_CAT_ID":60027,"ELEMENT_SET_NO":999,"REV_AT_EPOCH":9897,"BSTAR":-1.37943e-5,"MEAN_MOTION_DOT":-7.67e-6,"MEAN_MOTION_DDOT":0},{"OBJECT_NAME":"TRANSPORTER-11 OBJECT A","OBJECT_ID":"2024-149A","EPOCH":"2026-03-09T17:54:54.302112","MEAN_MOTION":15.31141332,"ECCENTRICITY":0.00031096,"INCLINATION":97.378,"RA_OF_ASC_NODE":149.0949,"ARG_OF_PERICENTER":191.001,"MEAN_ANOMALY":169.1164,"EPHEMERIS_TYPE":0,"CLASSIFICATION_TYPE":"U","NORAD_CAT_ID":60468,"ELEMENT_SET_NO":999,"REV_AT_EPOCH":8683,"BSTAR":0.00036053677,"MEAN_MOTION_DOT":0.00010774,"MEAN_MOTION_DDOT":0}]
