STARLINK-32012          
1 60027U 24111M   26068.28511129 -.00000767  00000+0 -13794-4 0  9994
2 60027  53.1606  77.3493 0001270  91.1019 269.0127 15.30185615 98977
TRANSPORTER-11 OBJECT A 
1 60468U 24149A   26068.74646182  .00010774  00000+0  36054-3 0  9993
2 60468  97.3780 149.0949 0003110 191.0010 169.1164 15.31141332 86830
